HST                     
1 20580U 90037B   26068.15977042  .00009063  00000+0  30023-3 0  9999
2 20580  28.4717  43.6133 0001837 120.9992 239.0785 15.29473555773239
STARLINK-32178          
1 60413U 24141R   26068.71594936 -.00000526  00000+0 -56519-5 0  9997
2 60413  53.1592 242.5346 0001094  86.0908 274.0218 15.30186514 89524
