[{"OBJECT_NAME":"HST","OBJECT_ID":"1990-037B","EPOCH":"2026-03-09T03:50:04.164288","MEAN_MOTION":15.29473555,"ECCENTRICITY":0.00018372,"INCLINATION":28.4717,"RA_OF_ASC_NODE":43.6133,"ARG_OF_PERICENTER":120.9992,"MEAN_ANOMALY":239.0785,"EPHEMERIS_TYPE":0,"CLASSIFICATION_TYPE":"U","NORAD_CAT_ID":20580,"ELEMENT_SET_NO":999,"REV_AT_EPOCH":77323,"BSTAR":0.0003002261,"MEAN_MOTION_DOT":9.063e-5,"MEAN_MOTION_DDOT":0},{"OBJECT_NAME":"STARLINK-32178","OBJECT_ID":"2024-141R","EPOCH":"2026-03-09T17:10:58.024704","MEAN_MOTION":15.30186514,"ECCENTRICITY":0.00010941,"INCLINATION":53.1592,"RA_OF_ASC_NODE":242.5346,"ARG_OF_PERICENTER":86.0908,"MEAN_ANOMALY":274.0218,"EPHEMERIS_TYPE":0,"CLASSIFICATION_TYPE":"U","NORAD_CAT_ID":60413,"ELEMENT_SET_NO":999,"REV_AT_EPOCH":8952,"BSTAR":-5.651873e-6,"MEAN_MOTION_DOT":-5.26e-6,"MEAN_MOTION_DDOT":0}]
